satname,norad_id,inclination_deg,eccentricity,mean_motion_rev_per_day,perigee_km,apogee_km,l1,l2
STARLINK-1506,45747,53.0651,0.0002259,15.21923055,498.4866904439823,501.59425102526075,1 45747U 20038T   25320.41562584  .00012150  00000+0  53997-3 0  9991,2 45747  53.0651   4.7376 0002259 314.5674  45.5137 15.21923055299417
STARLINK-1464,45751,53.055,0.0001316,15.06427427,546.2161346007433,548.0388642169873,1 45751U 20038X   25320.51068319  .00014123  00000+0  96439-3 0  9994,2 45751  53.0550   4.6989 0001316  96.5853 263.5286 15.06427427299421
STARLINK-1477,45754,53.0542,0.000283,15.07536521,541.7715847963327,545.6893617862161,1 45754U 20038AA  25320.51685872  .00012942  00000+0  85943-3 0  9991,2 45754  53.0542   4.5784 0002830  32.4753 327.6410 15.07536521299425
STARLINK-1478,45755,53.055,0.0001592,15.06412438,546.0709281003174,548.2759469436241,1 45755U 20038AB  25320.41115255  .00016063  00000+0  10944-2 0  9990,2 45755  53.0550   5.1440 0001592  90.6337 269.4835 15.06412438299398
STARLINK-1484,45756,53.0158,0.0003656,15.6437257,372.57487912604483,377.5128049577461,1 45756U 20038AC  25320.12746573  .00092593  00000+0  94345-3 0  9992,2 45756  53.0158 265.7730 0003656  75.0804 285.0614 15.64372570300767
STARLINK-1493,45759,53.0531,0.0001853,15.06409249,545.8999493952715,548.466473065554,1 45759U 20038AF  25320.53278685  .00005705  00000+0  40147-3 0  9994,2 45759  53.0531   4.5967 0001853 100.7530 259.3668 15.06409249299417
STARLINK-1494,45760,53.0547,0.0004444,15.52950315,405.1015516289999,411.13317450689465,1 45760U 20038AG  25320.76327000  .00045603  00000+0  72301-3 0  9995,2 45760  53.0547 343.4019 0004444  56.5792 303.5641 15.52950315299741
STARLINK-1502,45764,53.0567,0.0001835,15.06413252,545.9001487571659,548.4417367721599,1 45764U 20038AL  25320.56598296  .00031975  00000+0  21550-2 0  9990,2 45764  53.0567   4.4508 0001835  80.8654 279.2542 15.06413252299430
STARLINK-1470,45772,53.0507,0.0004491,15.18705659,506.65802714866186,512.8447284896192,1 45772U 20038AU  25320.36214303  .00014090  00000+0  68452-3 0  9993,2 45772  53.0507 336.5094 0004491 328.8886  31.1842 15.18705659299802
STARLINK-1482,45773,53.0541,0.000142,15.06427241,546.1446818149743,548.1114570947002,1 45773U 20038AV  25320.33192115  .00014291  00000+0  97566-3 0  9998,2 45773  53.0541 345.5005 0001420  92.7728 267.3424 15.06427241299673
STARLINK-1496,45780,53.0552,0.0001849,15.0641507,545.8848825354116,548.4458593521877,1 45780U 20038BC  25320.76315970 -.00004051  00000+0 -25312-3 0  9994,2 45780  53.0552 343.5655 0001849  96.7864 263.3335 15.06415070299722
STARLINK-1497,45781,53.0376,0.0006864,15.58791488,386.50714633901316,395.8000284573927,1 45781U 20038BD  25320.80862456  .00133324  00000+0  16728-2 0  9990,2 45781  53.0376 282.9037 0006864  19.1369 340.9899 15.58791488300590
STARLINK-1510,45784,53.0296,0.0004834,15.77167528,335.22348575035903,341.71710168192476,1 45784U 20038BG  25320.91668980  .00259171  00000+0  15093-2 0  9994,2 45784  53.0296 256.5382 0004834 112.5831 288.2083 15.77167528  6035
STARLINK-1513,45786,53.0558,0.000146,15.06383607,546.2506923529963,548.2729088027645,1 45786U 20038BJ  25320.32823926  .00003470  00000+0  25181-3 0  9993,2 45786  53.0558 345.5187 0001460  89.7383 270.3773 15.06383607299671
STARLINK-1522,46027,53.0541,0.0001621,15.0643538,545.9805440318369,548.2257068805111,1 46027U 20055A   25320.83964550  .00027752  00000+0  18729-2 0  9994,2 46027  53.0541 273.2265 0001621  79.6757 280.4415 15.06435380291873
STARLINK-1523,46028,53.0544,0.0001333,15.06427377,546.2045148688203,548.0507904252154,1 46028U 20055B   25320.58898732  .00002707  00000+0  20042-3 0  9990,2 46028  53.0544 274.3484 0001333  88.2972 271.8170 15.06427377291854
STARLINK-1526,46029,53.0555,0.0001497,15.06386118,546.2173735472807,548.2908356439957,1 46029U 20055C   25320.58162390 -.00004440  00000+0 -27946-3 0  9993,2 46029  53.0555 274.3779 0001497  91.0609 269.0552 15.06386118291843
STARLINK-1555,46032,53.0543,0.0001506,15.06397751,546.1754922770451,548.2614093388293,1 46032U 20055F   25320.16882140  .00008282  00000+0  57428-3 0  9997,2 46032  53.0543 276.2322 0001506  93.2794 266.8367 15.06397751291786
STARLINK-1556,46033,53.0547,0.0001178,15.06384889,546.4420598481975,548.0736828798908,1 46033U 20055G   25320.15036240  .00021977  00000+0  14903-2 0  9995,2 46033  53.0547 276.3147 0001178  94.8430 265.2693 15.06384889291756
STARLINK-1557,46034,53.0552,0.0001383,15.0638368,546.3037942161673,548.2193594625205,1 46034U 20055H   25320.15406437  .00001071  00000+0  90844-4 0  9998,2 46034  53.0552 276.2978 0001383 108.0999 252.0140 15.06383680291759
STARLINK-1558,46035,53.0548,0.0001307,15.06371952,546.3923680603802,548.2026766445224,1 46035U 20055J   25320.09507128  .00014766  00000+0  10089-2 0  9997,2 46035  53.0548 276.5653 0001307  92.8901 267.2238 15.06371952291774
STARLINK-1560,46036,53.0535,0.0001373,15.06440298,546.137219725706,548.0388865252935,1 46036U 20055K   25320.14669156  .00015512  00000+0  10568-2 0  9996,2 46036  53.0535 276.3346 0001373  84.4496 275.6649 15.06440298291787
STARLINK-1567,46038,53.054,0.0001353,15.06417933,546.2196041977504,548.0935886449415,1 46038U 20055M   25320.15775908  .00017715  00000+0  12046-2 0  9992,2 46038  53.0540 276.2820 0001353  89.2898 270.8246 15.06417933291777
STARLINK-1569,46039,53.0556,0.0001269,15.06442023,546.2039561013307,547.9615768780659,1 46039U 20055N   25320.16510700  .00013265  00000+0  90670-3 0  9997,2 46039  53.0556 276.2526 0001269  80.6758 279.4375 15.06442023291770
STARLINK-1582,46043,53.054,0.000157,15.06396497,546.1350127403775,548.3095755587392,1 46043U 20055S   25320.17249187  .00003293  00000+0  23989-3 0  9990,2 46043  53.0540 276.2163 0001570  84.5072 275.6096 15.06396497291773
STARLINK-1591,46045,53.0554,0.0001392,15.06409406,546.2187255465678,548.1467345594147,1 46045U 20055U   25320.59639335  .00010858  00000+0  74653-3 0  9995,2 46045  53.0554 274.3136 0001392  83.9888 276.1260 15.06409406291829
STARLINK-1524,46047,53.0541,0.0001246,15.06393801,546.3676562480032,548.093457843218,1 46047U 20055W   25320.81478492  .00003790  00000+0  27324-3 0  9997,2 46047  53.0541 263.3353 0001246  79.6619 280.4510 15.06393801292017
STARLINK-1527,46048,53.0533,0.0001275,15.06388501,546.3638145066861,548.1297873759268,1 46048U 20055X   25320.14760462 -.00001762  00000+0 -99479-4 0  9995,2 46048  53.0533 266.3264 0001275  92.7980 267.3155 15.06388501291897
